IDEFIX & ARIANE 42P R/B 
1 27422U 02021B   26038.29021106  .00000440  00000+0  18372-3 0  9993
2 27422  98.5841 337.2660 0010703 278.6978  81.2993 14.31004135239670
AQUA                    
1 27424U 02022A   26038.30497272  .00001568  00000+0  32334-3 0  9995
2 27424  98.4122   5.1299 0001557  54.1728  54.4279 14.61901212264299
CZ-4B R/B               
1 27432U 02024C   26038.16340655  .00000049  00000+0  48111-4 0  9996
2 27432  98.8905  91.7139 0051134 109.4703 318.3857 14.14542108224921
MIDORI II (ADEOS-II)    
1 27597U 02056A   26038.28137528  .00000478  00000+0  20579-3 0  9992
2 27597  98.7717 356.5599 0002129  85.7278 274.4146 14.29261872205955
H-2A R/B                
1 27601U 02056E   26037.86114762  .00000460  00000+0  17603-3 0  9991
2 27601  98.3148 359.4112 0069027 253.2941 167.2097 14.33738512209691
CZ-4B R/B               
1 28059U 03049C   26037.98789654  .00000721  00000+0  17686-3 0  9994
2 28059  98.6846  31.6967 0047558 326.6484  33.1718 14.54986175182139
CZ-2C R/B               
1 28222U 04012C   26038.12848833  .00059506  00000+0  70099-3 0  9991
2 28222  97.7303 100.6009 0016151  65.7418 294.5523 15.61045570199506
SL-16 R/B               
1 28353U 04021B   26038.12129682  .00000069  00000+0  60672-4 0  9997
2 28353  71.0002 296.6458 0002884  86.3594 273.7859 14.14589586118518
CZ-4B R/B               
1 28415U 04035C   26038.08034428  .00010666  00000+0  38051-3 0  9998
2 28415  97.3549  72.6960 0034212  78.1951 282.3123 15.28497441175236
CZ-2C R/B               
1 28480U 04046B   26038.26425440  .00000216  00000+0  96064-4 0  9999
2 28480  98.1996 315.1377 0138262 244.6891 113.9915 14.26981334104161
ARIANE 5 R/B            
1 28499U 04049H   26038.04676993  .00001472  00000+0  16780-3 0  9990
2 28499  98.2577 205.3681 0085503  90.4291 270.6721 14.85202775141241
CZ-2D R/B               
1 28738U 05024B   26038.02309511  .00047372  00000+0  64299-3 0  9994
2 28738  97.3618  52.1092 0007299 120.6328 239.5648 15.57471679135000
