CCSDS_OMM_VERS = 2.0
CREATION_DATE  = 
ORIGINATOR     = 

OBJECT_NAME    = IDEFIX & ARIANE 42P R/B
OBJECT_ID      = 2002-021B
CENTER_NAME    = EARTH
REF_FRAME      = TEME
TIME_SYSTEM    = UTC
MEAN_ELEMENT_THEORY = SGP/SGP4

EPOCH          = 2026-02-07T06:57:54.235584
MEAN_MOTION    = 14.31004135
ECCENTRICITY   = .00107036
INCLINATION    = 98.5841
RA_OF_ASC_NODE = 337.2660
ARG_OF_PERICENTER = 278.6978
MEAN_ANOMALY   = 81.2993

EPHEMERIS_TYPE = 0
CLASSIFICATION_TYPE = U
NORAD_CAT_ID   = 27422
ELEMENT_SET_NO = 999
REV_AT_EPOCH   = 23967
BSTAR          = .18372076E-3
MEAN_MOTION_DOT = .44E-5
MEAN_MOTION_DDOT = 0

CCSDS_OMM_VERS = 2.0
CREATION_DATE  = 
ORIGINATOR     = 

OBJECT_NAME    = AQUA
OBJECT_ID      = 2002-022A
CENTER_NAME    = EARTH
REF_FRAME      = TEME
TIME_SYSTEM    = UTC
MEAN_ELEMENT_THEORY = SGP/SGP4

EPOCH          = 2026-02-07T07:19:09.643008
MEAN_MOTION    = 14.61901212
ECCENTRICITY   = .00015576
INCLINATION    = 98.4122
RA_OF_ASC_NODE = 5.1299
ARG_OF_PERICENTER = 54.1728
MEAN_ANOMALY   = 54.4279

EPHEMERIS_TYPE = 0
CLASSIFICATION_TYPE = U
NORAD_CAT_ID   = 27424
ELEMENT_SET_NO = 999
REV_AT_EPOCH   = 26429
BSTAR          = .32333733E-3
MEAN_MOTION_DOT = .1568E-4
MEAN_MOTION_DDOT = 0

CCSDS_OMM_VERS = 2.0
CREATION_DATE  = 
ORIGINATOR     = 

OBJECT_NAME    = CZ-4B R/B
OBJECT_ID      = 2002-024C
CENTER_NAME    = EARTH
REF_FRAME      = TEME
TIME_SYSTEM    = UTC
MEAN_ELEMENT_THEORY = SGP/SGP4

EPOCH          = 2026-02-07T03:55:18.325920
MEAN_MOTION    = 14.14542108
ECCENTRICITY   = .00511345
INCLINATION    = 98.8905
RA_OF_ASC_NODE = 91.7139
ARG_OF_PERICENTER = 109.4703
MEAN_ANOMALY   = 318.3857

EPHEMERIS_TYPE = 0
CLASSIFICATION_TYPE = U
NORAD_CAT_ID   = 27432
ELEMENT_SET_NO = 999
REV_AT_EPOCH   = 22492
BSTAR          = .48111346E-4
MEAN_MOTION_DOT = .49E-6
MEAN_MOTION_DDOT = 0

CCSDS_OMM_VERS = 2.0
CREATION_DATE  = 
ORIGINATOR     = 

OBJECT_NAME    = MIDORI II (ADEOS-II)
OBJECT_ID      = 2002-056A
CENTER_NAME    = EARTH
REF_FRAME      = TEME
TIME_SYSTEM    = UTC
MEAN_ELEMENT_THEORY = SGP/SGP4

EPOCH          = 2026-02-07T06:45:10.824192
MEAN_MOTION    = 14.29261872
ECCENTRICITY   = .00021295
INCLINATION    = 98.7717
RA_OF_ASC_NODE = 356.5599
ARG_OF_PERICENTER = 85.7278
MEAN_ANOMALY   = 274.4146

EPHEMERIS_TYPE = 0
CLASSIFICATION_TYPE = U
NORAD_CAT_ID   = 27597
ELEMENT_SET_NO = 999
REV_AT_EPOCH   = 20595
BSTAR          = .20579153E-3
MEAN_MOTION_DOT = .478E-5
MEAN_MOTION_DDOT = 0

CCSDS_OMM_VERS = 2.0
CREATION_DATE  = 
ORIGINATOR     = 

OBJECT_NAME    = H-2A R/B
OBJECT_ID      = 2002-056E
CENTER_NAME    = EARTH
REF_FRAME      = TEME
TIME_SYSTEM    = UTC
MEAN_ELEMENT_THEORY = SGP/SGP4

EPOCH          = 2026-02-06T20:40:03.154368
MEAN_MOTION    = 14.33738512
ECCENTRICITY   = .00690271
INCLINATION    = 98.3148
RA_OF_ASC_NODE = 359.4112
ARG_OF_PERICENTER = 253.2941
MEAN_ANOMALY   = 167.2097

EPHEMERIS_TYPE = 0
CLASSIFICATION_TYPE = U
NORAD_CAT_ID   = 27601
ELEMENT_SET_NO = 999
REV_AT_EPOCH   = 20969
BSTAR          = .17603264E-3
MEAN_MOTION_DOT = .46E-5
MEAN_MOTION_DDOT = 0

CCSDS_OMM_VERS = 2.0
CREATION_DATE  = 
ORIGINATOR     = 

OBJECT_NAME    = CZ-4B R/B
OBJECT_ID      = 2003-049C
CENTER_NAME    = EARTH
REF_FRAME      = TEME
TIME_SYSTEM    = UTC
MEAN_ELEMENT_THEORY = SGP/SGP4

EPOCH          = 2026-02-06T23:42:34.261056
MEAN_MOTION    = 14.54986175
ECCENTRICITY   = .0047558
INCLINATION    = 98.6846
RA_OF_ASC_NODE = 31.6967
ARG_OF_PERICENTER = 326.6484
MEAN_ANOMALY   = 33.1718

EPHEMERIS_TYPE = 0
CLASSIFICATION_TYPE = U
NORAD_CAT_ID   = 28059
ELEMENT_SET_NO = 999
REV_AT_EPOCH   = 18213
BSTAR          = .17686E-3
MEAN_MOTION_DOT = .721E-5
MEAN_MOTION_DDOT = 0

CCSDS_OMM_VERS = 2.0
CREATION_DATE  = 
ORIGINATOR     = 

OBJECT_NAME    = CZ-2C R/B
OBJECT_ID      = 2004-012C
CENTER_NAME    = EARTH
REF_FRAME      = TEME
TIME_SYSTEM    = UTC
MEAN_ELEMENT_THEORY = SGP/SGP4

EPOCH          = 2026-02-07T03:05:01.391712
MEAN_MOTION    = 15.61045570
ECCENTRICITY   = .00161514
INCLINATION    = 97.7303
RA_OF_ASC_NODE = 100.6009
ARG_OF_PERICENTER = 65.7418
MEAN_ANOMALY   = 294.5523

EPHEMERIS_TYPE = 0
CLASSIFICATION_TYPE = U
NORAD_CAT_ID   = 28222
ELEMENT_SET_NO = 999
REV_AT_EPOCH   = 19950
BSTAR          = .70098539E-3
MEAN_MOTION_DOT = .59506E-3
MEAN_MOTION_DDOT = 0

CCSDS_OMM_VERS = 2.0
CREATION_DATE  = 
ORIGINATOR     = 

OBJECT_NAME    = SL-16 R/B
OBJECT_ID      = 2004-021B
CENTER_NAME    = EARTH
REF_FRAME      = TEME
TIME_SYSTEM    = UTC
MEAN_ELEMENT_THEORY = SGP/SGP4

EPOCH          = 2026-02-07T02:54:40.045248
MEAN_MOTION    = 14.14589586
ECCENTRICITY   = .00028848
INCLINATION    = 71.0002
RA_OF_ASC_NODE = 296.6458
ARG_OF_PERICENTER = 86.3594
MEAN_ANOMALY   = 273.7859

EPHEMERIS_TYPE = 0
CLASSIFICATION_TYPE = U
NORAD_CAT_ID   = 28353
ELEMENT_SET_NO = 999
REV_AT_EPOCH   = 11851
BSTAR          = .60672468E-4
MEAN_MOTION_DOT = .69E-6
MEAN_MOTION_DDOT = 0

CCSDS_OMM_VERS = 2.0
CREATION_DATE  = 
ORIGINATOR     = 

OBJECT_NAME    = CZ-4B R/B
OBJECT_ID      = 2004-035C
CENTER_NAME    = EARTH
REF_FRAME      = TEME
TIME_SYSTEM    = UTC
MEAN_ELEMENT_THEORY = SGP/SGP4

EPOCH          = 2026-02-07T01:55:41.745792
MEAN_MOTION    = 15.28497441
ECCENTRICITY   = .00342124
INCLINATION    = 97.3549
RA_OF_ASC_NODE = 72.6960
ARG_OF_PERICENTER = 78.1951
MEAN_ANOMALY   = 282.3123

EPHEMERIS_TYPE = 0
CLASSIFICATION_TYPE = U
NORAD_CAT_ID   = 28415
ELEMENT_SET_NO = 999
REV_AT_EPOCH   = 17523
BSTAR          = .3805071E-3
MEAN_MOTION_DOT = .10666E-3
MEAN_MOTION_DDOT = 0

CCSDS_OMM_VERS = 2.0
CREATION_DATE  = 
ORIGINATOR     = 

OBJECT_NAME    = CZ-2C R/B
OBJECT_ID      = 2004-046B
CENTER_NAME    = EARTH
REF_FRAME      = TEME
TIME_SYSTEM    = UTC
MEAN_ELEMENT_THEORY = SGP/SGP4

EPOCH          = 2026-02-07T06:20:31.580160
MEAN_MOTION    = 14.26981334
ECCENTRICITY   = .01382628
INCLINATION    = 98.1996
RA_OF_ASC_NODE = 315.1377
ARG_OF_PERICENTER = 244.6891
MEAN_ANOMALY   = 113.9915

EPHEMERIS_TYPE = 0
CLASSIFICATION_TYPE = U
NORAD_CAT_ID   = 28480
ELEMENT_SET_NO = 999
REV_AT_EPOCH   = 10416
BSTAR          = .96063533E-4
MEAN_MOTION_DOT = .216E-5
MEAN_MOTION_DDOT = 0

CCSDS_OMM_VERS = 2.0
CREATION_DATE  = 
ORIGINATOR     = 

OBJECT_NAME    = ARIANE 5 R/B
OBJECT_ID      = 2004-049H
CENTER_NAME    = EARTH
REF_FRAME      = TEME
TIME_SYSTEM    = UTC
MEAN_ELEMENT_THEORY = SGP/SGP4

EPOCH          = 2026-02-07T01:07:20.921952
MEAN_MOTION    = 14.85202775
ECCENTRICITY   = .00855032
INCLINATION    = 98.2577
RA_OF_ASC_NODE = 205.3681
ARG_OF_PERICENTER = 90.4291
MEAN_ANOMALY   = 270.6721

EPHEMERIS_TYPE = 0
CLASSIFICATION_TYPE = U
NORAD_CAT_ID   = 28499
ELEMENT_SET_NO = 999
REV_AT_EPOCH   = 14124
BSTAR          = .167797E-3
MEAN_MOTION_DOT = .1472E-4
MEAN_MOTION_DDOT = 0

CCSDS_OMM_VERS = 2.0
CREATION_DATE  = 
ORIGINATOR     = 

OBJECT_NAME    = CZ-2D R/B
OBJECT_ID      = 2005-024B
CENTER_NAME    = EARTH
REF_FRAME      = TEME
TIME_SYSTEM    = UTC
MEAN_ELEMENT_THEORY = SGP/SGP4

EPOCH          = 2026-02-07T00:33:15.417504
MEAN_MOTION    = 15.57471679
ECCENTRICITY   = .00072998
INCLINATION    = 97.3618
RA_OF_ASC_NODE = 52.1092
ARG_OF_PERICENTER = 120.6328
MEAN_ANOMALY   = 239.5648

EPHEMERIS_TYPE = 0
CLASSIFICATION_TYPE = U
NORAD_CAT_ID   = 28738
ELEMENT_SET_NO = 999
REV_AT_EPOCH   = 13500
BSTAR          = .64299285E-3
MEAN_MOTION_DOT = .47372E-3
MEAN_MOTION_DDOT = 0

